{
  "type": "FeatureCollection",
  "features": [
    {
      "type": "Feature",
      "properties": {
        "norad_id": 33939,
        "name": "COSMOS 2251 DEB",
        "group": "cosmos-2251-debris",
        "lat": -44.5071847980982,
        "lon": 50.06943380740509,
        "alt_km": 571.4946015169362,
        "timestamp": "2025-12-19T16:54:44.656262+00:00",
        "meta_object_name": "COSMOS 2251 DEB",
        "meta_object_id": "1993-036EU",
        "meta_epoch": "2025-12-19T05:55:06.240864",
        "meta_mean_motion": 15.00334458,
        "meta_eccentricity": 0.00043009,
        "meta_inclination": 74.0072,
        "meta_ra_of_asc_node": 67.3766,
        "meta_arg_of_pericenter": 31.1681,
        "meta_mean_anomaly": 328.976,
        "meta_ephemeris_type": 0,
        "meta_classification_type": "U",
        "meta_norad_cat_id": 33939,
        "meta_element_set_no": 999,
        "meta_rev_at_epoch": 88850,
        "meta_bstar": 0.001787521,
        "meta_mean_motion_dot": 0.00022468,
        "meta_mean_motion_ddot": 0,
        "tle_line1": "1 33939U 93036EU  25353.24660001  .00022468  00000+0  17875-2 0  9996",
        "tle_line2": "2 33939  74.0072  67.3766 0004300  31.1681 328.9760 15.00334458888508"
      },
      "geometry": {
        "type": "Point",
        "coordinates": [
          50.06943380740509,
          -44.5071847980982
        ]
      }
    },
    {
      "type": "Feature",
      "properties": {
        "norad_id": 33940,
        "name": "COSMOS 2251 DEB",
        "group": "cosmos-2251-debris",
        "lat": 48.8087468580742,
        "lon": -68.85328156710663,
        "alt_km": 691.0072190186393,
        "timestamp": "2025-12-19T16:54:44.656273+00:00",
        "meta_object_name": "COSMOS 2251 DEB",
        "meta_object_id": "1993-036EV",
        "meta_epoch": "2025-12-19T03:58:04.228608",
        "meta_mean_motion": 14.58852959,
        "meta_eccentricity": 0.00110076,
        "meta_inclination": 74.039,
        "meta_ra_of_asc_node": 131.2615,
        "meta_arg_of_pericenter": 211.4593,
        "meta_mean_anomaly": 325.6152,
        "meta_ephemeris_type": 0,
        "meta_classification_type": "U",
        "meta_norad_cat_id": 33940,
        "meta_element_set_no": 999,
        "meta_rev_at_epoch": 88687,
        "meta_bstar": 0.00082721451,
        "meta_mean_motion_dot": 3.848e-05,
        "meta_mean_motion_ddot": 0,
        "tle_line1": "1 33940U 93036EV  25353.16532672  .00003848  00000+0  82721-3 0  9995",
        "tle_line2": "2 33940  74.0390 131.2615 0011007 211.4593 325.6152 14.58852959886874"
      },
      "geometry": {
        "type": "Point",
        "coordinates": [
          -68.85328156710663,
          48.8087468580742
        ]
      }
    },
    {
      "type": "Feature",
      "properties": {
        "norad_id": 33942,
        "name": "COSMOS 2251 DEB",
        "group": "cosmos-2251-debris",
        "lat": 15.356301628976578,
        "lon": 77.49355359257774,
        "alt_km": 780.2462478773059,
        "timestamp": "2025-12-19T16:54:44.656283+00:00",
        "meta_object_name": "COSMOS 2251 DEB",
        "meta_object_id": "1993-036EX",
        "meta_epoch": "2025-12-19T05:00:20.595744",
        "meta_mean_motion": 14.37997549,
        "meta_eccentricity": 0.00205887,
        "meta_inclination": 74.0365,
        "meta_ra_of_asc_node": 262.9155,
        "meta_arg_of_pericenter": 344.9439,
        "meta_mean_anomaly": 131.7262,
        "meta_ephemeris_type": 0,
        "meta_classification_type": "U",
        "meta_norad_cat_id": 33942,
        "meta_element_set_no": 999,
        "meta_rev_at_epoch": 88227,
        "meta_bstar": 0.00016705247,
        "meta_mean_motion_dot": 4.8e-06,
        "meta_mean_motion_ddot": 0,
        "tle_line1": "1 33942U 93036EX  25353.20857171  .00000480  00000+0  16705-3 0  9994",
        "tle_line2": "2 33942  74.0365 262.9155 0020588 344.9439 131.7262 14.37997549882274"
      },
      "geometry": {
        "type": "Point",
        "coordinates": [
          77.49355359257774,
          15.356301628976578
        ]
      }
    },
    {
      "type": "Feature",
      "properties": {
        "norad_id": 33944,
        "name": "COSMOS 2251 DEB",
        "group": "cosmos-2251-debris",
        "lat": 21.01064226690315,
        "lon": -57.57767133873785,
        "alt_km": 688.1060631945384,
        "timestamp": "2025-12-19T16:54:44.656294+00:00",
        "meta_object_name": "COSMOS 2251 DEB",
        "meta_object_id": "1993-036EZ",
        "meta_epoch": "2025-12-19T07:32:06.789408",
        "meta_mean_motion": 14.37357165,
        "meta_eccentricity": 0.01124582,
        "meta_inclination": 74.0406,
        "meta_ra_of_asc_node": 296.8308,
        "meta_arg_of_pericenter": 34.7445,
        "meta_mean_anomaly": 126.5793,
        "meta_ephemeris_type": 0,
        "meta_classification_type": "U",
        "meta_norad_cat_id": 33944,
        "meta_element_set_no": 999,
        "meta_rev_at_epoch": 88122,
        "meta_bstar": 0.0002620312,
        "meta_mean_motion_dot": 8.14e-06,
        "meta_mean_motion_ddot": 0,
        "tle_line1": "1 33944U 93036EZ  25353.31396747  .00000814  00000+0  26203-3 0  9990",
        "tle_line2": "2 33944  74.0406 296.8308 0112458  34.7445 126.5793 14.37357165881226"
      },
      "geometry": {
        "type": "Point",
        "coordinates": [
          -57.57767133873785,
          21.01064226690315
        ]
      }
    },
    {
      "type": "Feature",
      "properties": {
        "norad_id": 33945,
        "name": "COSMOS 2251 DEB",
        "group": "cosmos-2251-debris",
        "lat": 67.13861858964326,
        "lon": 70.72519414854138,
        "alt_km": 769.050400063712,
        "timestamp": "2025-12-19T16:54:44.656304+00:00",
        "meta_object_name": "COSMOS 2251 DEB",
        "meta_object_id": "1993-036FA",
        "meta_epoch": "2025-12-19T04:42:14.337792",
        "meta_mean_motion": 14.34605746,
        "meta_eccentricity": 0.00221837,
        "meta_inclination": 74.0302,
        "meta_ra_of_asc_node": 294.4369,
        "meta_arg_of_pericenter": 19.0252,
        "meta_mean_anomaly": 341.1723,
        "meta_ephemeris_type": 0,
        "meta_classification_type": "U",
        "meta_norad_cat_id": 33945,
        "meta_element_set_no": 999,
        "meta_rev_at_epoch": 88108,
        "meta_bstar": 9.5989631e-05,
        "meta_mean_motion_dot": 2.46e-06,
        "meta_mean_motion_ddot": 0,
        "tle_line1": "1 33945U 93036FA  25353.19599928  .00000246  00000+0  95990-4 0  9992",
        "tle_line2": "2 33945  74.0302 294.4369 0022183  19.0252 341.1723 14.34605746881080"
      },
      "geometry": {
        "type": "Point",
        "coordinates": [
          70.72519414854138,
          67.13861858964326
        ]
      }
    },
    {
      "type": "Feature",
      "properties": {
        "norad_id": 33948,
        "name": "COSMOS 2251 DEB",
        "group": "cosmos-2251-debris",
        "lat": -18.432762331395597,
        "lon": -73.11934343106813,
        "alt_km": 762.7689854109985,
        "timestamp": "2025-12-19T16:54:44.656314+00:00",
        "meta_object_name": "COSMOS 2251 DEB",
        "meta_object_id": "1993-036FD",
        "meta_epoch": "2025-12-18T22:36:17.325216",
        "meta_mean_motion": 14.35636425,
        "meta_eccentricity": 0.00230003,
        "meta_inclination": 74.0359,
        "meta_ra_of_asc_node": 293.7543,
        "meta_arg_of_pericenter": 8.033,
        "meta_mean_anomaly": 352.1186,
        "meta_ephemeris_type": 0,
        "meta_classification_type": "U",
        "meta_norad_cat_id": 33948,
        "meta_element_set_no": 999,
        "meta_rev_at_epoch": 88112,
        "meta_bstar": 0.00015379918,
        "meta_mean_motion_dot": 4.19e-06,
        "meta_mean_motion_ddot": 0,
        "tle_line1": "1 33948U 93036FD  25352.94186719  .00000419  00000+0  15380-3 0  9993",
        "tle_line2": "2 33948  74.0359 293.7543 0023000   8.0330 352.1186 14.35636425881124"
      },
      "geometry": {
        "type": "Point",
        "coordinates": [
          -73.11934343106813,
          -18.432762331395597
        ]
      }
    },
    {
      "type": "Feature",
      "properties": {
        "norad_id": 33971,
        "name": "COSMOS 2251 DEB",
        "group": "cosmos-2251-debris",
        "lat": 27.14724723661062,
        "lon": 52.41463821036017,
        "alt_km": 771.1960759305657,
        "timestamp": "2025-12-19T16:54:44.656324+00:00",
        "meta_object_name": "COSMOS 2251 DEB",
        "meta_object_id": "1993-036FE",
        "meta_epoch": "2025-12-19T03:34:47.209728",
        "meta_mean_motion": 14.39736064,
        "meta_eccentricity": 0.00187953,
        "meta_inclination": 74.0245,
        "meta_ra_of_asc_node": 241.8878,
        "meta_arg_of_pericenter": 341.2858,
        "meta_mean_anomaly": 172.0913,
        "meta_ephemeris_type": 0,
        "meta_classification_type": "U",
        "meta_norad_cat_id": 33971,
        "meta_element_set_no": 999,
        "meta_rev_at_epoch": 88231,
        "meta_bstar": 0.00020120345,
        "meta_mean_motion_dot": 6.05e-06,
        "meta_mean_motion_ddot": 0,
        "tle_line1": "1 33971U 93036FE  25353.14915752  .00000605  00000+0  20120-3 0  9994",
        "tle_line2": "2 33971  74.0245 241.8878 0018795 341.2858 172.0913 14.39736064882314"
      },
      "geometry": {
        "type": "Point",
        "coordinates": [
          52.41463821036017,
          27.14724723661062
        ]
      }
    }
  ]
}